FLOCK 4G-2              
1 62661U 25009BE  26068.66207492  .00013752  00000+0  51068-3 0  9995
2 62661  97.4044 151.2221 0003181 329.2677  30.8376 15.27675260121321
STARLINK-35899          
1 66497U 25263N   26068.17994564  .00031635  00000+0  11551-2 0  9999
2 66497  43.0043 353.3380 0001687 249.5468 110.5203 15.27553031 18826
